CUAVA-2                 
1 60527U 24149BM  26084.64856562  .00013305  00000+0  40556-3 0  9996
2 60527  97.3746 166.1453 0006227 220.9486 139.1290 15.34064246 89357
ERNST                   
1 60528U 24149BN  26085.22090722  .00014417  00000+0  40153-3 0  9998
2 60528  97.3823 168.4567 0005442 220.5832 139.5007 15.36892223 89529
TORO                    
1 60530U 24149BQ  26085.11470174  .00001468  00000+0  13564-3 0  9990
2 60530  97.6829 161.3383 0001259  94.7188 265.4178 14.96096516 87539
HYPSO-2                 
1 60531U 24149BR  26085.20420557  .00002663  00000+0  22838-3 0  9993
2 60531  97.6843 162.6873 0000698 171.9830 188.1404 14.98350806 87622
LEMU NGE                
1 60532U 24149BS  26085.11121220  .00002018  00000+0  19172-3 0  9990
2 60532  97.6883 161.7583 0000661  62.6654 297.4634 14.94587504 87548
LEMUR-2-STELLA          
1 60533U 24149BT  26085.16417647  .00012154  00000+0  75341-3 0  9999
2 60533  97.6751 167.3736 0001041 104.2762 255.8583 15.09898278 87968
SATELIOT_2              
1 60534U 24149BU  26085.16527403  .00002582  00000+0  23505-3 0  9991
2 60534  97.6872 161.6413 0001849  82.2774 277.8657 14.96038774 87559
NIGHTJAR                
1 60535U 24149BV  26085.20624142  .00003160  00000+0  26900-3 0  9990
2 60535  97.6868 163.0865 0000936  87.0851 273.0479 14.98505314130445
LEMUR-2-MARHISYAM       
1 60536U 24149BW  26085.18294050  .00011969  00000+0  75148-3 0  9993
2 60536  97.6885 167.7512 0002782  73.2504 286.9029 15.09431655 87958
SATELIOT_4              
1 60537U 24149BX  26085.19308129  .00001731  00000+0  15806-3 0  9999
2 60537  97.6772 161.2532 0001237 349.1950  10.9245 14.96333382 87564
PICO-02A021             
1 60538U 24149BY  26084.47236953  .00004977  00000+0  38028-3 0  9991
2 60538  97.6799 164.0745 0002418 319.2238  40.8805 15.02400300 87163
ICEYE-X43               
1 60539U 24149BZ  26085.22576196  .00003873  00000+0  32060-3 0  9996
2 60539  97.6814 163.3141 0002652  48.1186 312.0263 14.99464922 87688
HAWK-10A                
1 60540U 24149CA  26085.11778667  .00000985  00000+0  92378-4 0  9993
2 60540  97.6930 162.4603 0003483  14.6239 345.5083 14.96242426 87560
UMBRA-09                
1 60541U 24149CB  26085.20691794  .00015022  00000+0  79858-3 0  9994
2 60541  97.6974 171.1635 0001700 215.6760 144.4359 15.15379782 88148
QPS-SAR-8 (AMATERU-IV)  
1 60542U 24149CC  26085.14669096  .00005359  00000+0  40006-3 0  9993
2 60542  97.6699 165.0411 0004429  58.6043 301.5615 15.03248142 87790
ARCTIC WEATHER SATELLITE
1 60543U 24149CD  26085.20517654  .00001022  00000+0  11214-3 0  9995
2 60543  97.6857 158.0234 0003009  54.1747 305.9750 14.89807199 86947
CAPELLA-15 (ACADIA-5)   
1 60544U 24149CE  26085.18536646  .00006154  00000+0  60539-3 0  9990
2 60544  97.6809 160.1414 0003266   6.9983 353.1281 14.92451644 87478
HAWK-10B                
1 60545U 24149CF  26085.18456561  .00001311  00000+0  12120-3 0  9991
2 60545  97.6855 161.9636 0005798  25.2782 334.8722 14.96242476 87570
ICEYE-X39               
1 60546U 24149CG  26085.20535572  .00003120  00000+0  26012-3 0  9990
2 60546  97.6803 163.3537 0003153 354.2147   5.9039 14.99330555 87681
UMBRA-10                
1 60547U 24149CH  26085.14044162  .00015778  00000+0  83843-3 0  9991
2 60547  97.6974 171.1170 0001160 175.7110 184.4132 15.15383119 88145
ICEYE-X33               
1 60548U 24149CJ  26085.17472050  .00004887  00000+0  38430-3 0  9997
2 60548  97.7043 164.8829 0005623  79.9707 280.2151 15.01304342 87757
ICEYE-X40               
1 60549U 24149CK  26085.19571753  .00001538  00000+0  13645-3 0  9991
2 60549  97.6835 163.0324 0004659   8.7756 351.3547 14.97629893 87652
SATELIOT_1              
1 60550U 24149CL  26085.12489752  .00001532  00000+0  13575-3 0  9999
2 60550  97.6779 162.4162 0006558   3.2979 356.8286 14.97683178 87635
BRO-14                  
1 60551U 24149CM  26085.19426725  .00001083  00000+0  10170-3 0  9997
2 60551  97.6912 162.4602 0007131  27.0171 333.1420 14.95979459 87580
SATELIOT_3              
1 60552U 24149CN  26085.16720632  .00003047  00000+0  26499-3 0  9992
2 60552  97.6863 163.1711 0005261  24.9872 335.1604 14.97694936 87651
BRO-15                  
1 60553U 24149CP  26085.17461288  .00001195  00000+0  11180-3 0  9996
2 60553  97.6845 162.1212 0008325  17.3466 342.8038 14.95939932 87591
UM5-RIBAT               
1 60554U 24149CQ  26085.20005753  .00003005  00000+0  24270-3 0  9998
2 60554  97.6728 164.1096 0001616  65.2560 294.8831 15.00585784 87740
UM5-EOSAT               
1 60555U 24149CR  26085.18946229  .00002667  00000+0  21349-3 0  9995
2 60555  97.6785 164.9600 0006662  59.7377 300.4506 15.01010382 87766
LASARSAT                
1 62391U 24247Q   26084.95918374  .00028752  00000+0  68242-3 0  9994
2 62391  44.9775   8.1079 0003790 186.4871 173.5968 15.41243861 70458
CROCUBE                 
1 62394U 24247T   26085.17054818  .00035038  00000+0  79483-3 0  9990
2 62394  44.9745   5.3779 0003325 184.6632 175.4226 15.42513798 70507
TEVEL2-4                
1 63213U 25052D   26085.16176398  .00017239  00000+0  56677-3 0  9996
2 63213  97.3995 341.5566 0004378  64.6381 295.5314 15.31596083 57393
TEVEL2-5                
1 63214U 25052E   26085.17407222  .00017640  00000+0  58220-3 0  9993
2 63214  97.3994 341.5379 0004377  64.2843 295.8850 15.31466415 57396
TEVEL2-6                
1 63215U 25052F   26084.98831107  .00017322  00000+0  57267-3 0  9992
2 63215  97.3996 341.3382 0004465  64.6087 295.5617 15.31414785 57361
TEVEL2-1                
1 63217U 25052H   26085.12183426  .00016683  00000+0  55906-3 0  9992
2 63217  97.3969 341.1869 0004858  73.2617 286.9157 15.30983123 57372
TEVEL2-3                
1 63218U 25052J   26084.98829741  .00016973  00000+0  56814-3 0  9994
2 63218  97.3970 341.0667 0004841  73.0389 287.1383 15.31016859 57352
TEVEL2-2                
1 63219U 25052K   26083.94597670  .00016149  00000+0  54196-3 0  9999
2 63219  97.3968 340.0161 0004811  75.3994 284.7781 15.30944137 57197
TEVEL2-9                
1 63237U 25052AD  26083.68992421  .00015523  00000+0  54971-3 0  9999
2 63237  97.4029 339.3040 0008509  83.6104 276.6105 15.29181283 57100
TEVEL2-7                
1 63238U 25052AE  26084.95987501  .00014970  00000+0  53331-3 0  9998
2 63238  97.4034 340.5147 0008607  80.3672 279.8540 15.28992409 57299
TEVEL2-8                
1 63239U 25052AF  26084.50900598  .00016912  00000+0  60263-3 0  9991
2 63239  97.4034 340.0461 0008653  82.2276 277.9946 15.28958006 57223
HADES-ICM               
1 63492U 25052BN  26084.67679698  .00178759  00000+0  20153-2 0  9995
2 63492  97.3908 345.7616 0008454  82.0362 278.1855 15.61900520 57632
FORESAIL-1 PRIME        
1 66778U 25276DS  26084.75876234  .00005687  00000+0  28389-3 0  9996
2 66778  97.4248 159.5874 0003505  61.2767 298.8819 15.17881295 17742
